ONEWEB-0529             
1 54145U 22138AJ  22317.58334491 -.00911347  00000+0 -11665+0 0  9991
2 54145  87.4370 209.8458 0014110 211.9167 150.2527 14.84181352  1303
ONEWEB-0531             
1 54146U 22138AK  22317.58334491  .00072534  00000+0  71536-2 0  9992
2 54146  87.2697 209.7486 0008930 215.9722 298.0364 14.91621233  1303
ONEWEB-0535             
1 54147U 22138AL  22317.58334491 -.00834813  00000+0 -99265-1 0  9999
2 54147  87.4388 209.8347 0009803 202.3869 266.5044 14.87458505  1302
ONEWEB-0536             
1 54148U 22138AM  22317.58334491  .00073204  00000+0  72429-2 0  9991
2 54148  87.2752 209.7636 0009008 208.8208 294.6476 14.91488325  1300
GSLV R/B                
1 54149U 22138AN  22317.41599827  .00001506  00000+0  16327-3 0  9992
2 54149  87.3902 209.8621 0024261 199.7461 160.2829 14.87290350  3228
GONETS-M 23             
1 54150U 22139A   22317.82311443  .00000010  00000+0  00000+0 0  9992
2 54150  82.5054  83.1530 0016837 196.7499 324.0792 12.41994590  2734
GONETS-M 24             
1 54151U 22139B   22317.73205271  .00000010  00000+0  00000+0 0  9994
2 54151  82.4975  83.1773 0012540 218.4041 309.9919 12.43606185  2721
GONETS-M 25             
1 54152U 22139C   22317.64973380  .00000010  00000+0  00000+0 0  9998
2 54152  82.5006  83.2292 0013844 212.3839 335.9925 12.43968634  2716
PROGRESS-MS 21          
1 54155U 22140A   22317.53212873  .00010589  00000+0  19331-3 0  9997
2 54155  51.6437 316.7566 0006974  69.3626  75.2329 15.49978811368345
STARLINK-5290           
1 54157U 22141A   22317.91667824  .00027208  00000+0  19809-3 0  9998
2 54157  53.2199  60.4215 0002292  38.3819 178.1498 15.73146104  2684
STARLINK-5297           
1 54158U 22141B   22317.58334491 -.00029548  00000+0 -20747-3 0  9997
2 54158  53.2185  62.0722 0002593  18.4726 107.3842 15.73124613  1307
STARLINK-5294           
1 54159U 22141C   22317.91667824  .00024547  00000+0  17903-3 0  9996
2 54159  53.2195  60.4238 0002652  27.9407 187.3491 15.73169232  2686
STARLINK-5233           
1 54160U 22141D   22317.58334491 -.00033229  00000+0 -23399-3 0  9997
2 54160  53.2183  62.0096 0002181  22.9197 133.3519 15.73125570  1300
STARLINK-5269           
1 54161U 22141E   22317.58334491  .00002202  00000+0  20191-4 0  9991
2 54161  53.2181  62.0695 0002421  11.4073 115.7596 15.73106449  2637
STARLINK-5273           
1 54162U 22141F   22317.58334491 -.00039413  00000+0 -27860-3 0  9997
2 54162  53.2184  62.0673 0002008  19.5527 108.7231 15.73123492  1309
STARLINK-5161           
1 54163U 22141G   22317.91667824 -.00075788  00000+0 -53984-3 0  9995
2 54163  53.2178  60.4110 0002600  25.9596 194.7511 15.73220841  2680
STARLINK-5278           
1 54164U 22141H   22317.91667824  .00023564  00000+0  17230-3 0  9993
2 54164  53.2179  60.4119 0002328  24.8896 195.1792 15.73135860  2681
STARLINK-5279           
1 54165U 22141J   22317.91667824  .00028762  00000+0  20855-3 0  9996
2 54165  53.2190  60.4176 0002413  20.5980 197.1822 15.73209890  2681
STARLINK-5280           
1 54166U 22141K   22317.58334491 -.00003681  00000+0 -21897-4 0  9994
2 54166  53.2178  62.0573 0001934  18.7362 113.7573 15.73113378  1307
STARLINK-5243           
1 54167U 22141L   22317.58334491 -.00026422  00000+0 -18497-3 0  9994
2 54167  53.2196  62.0662 0002424  26.4407 103.0404 15.73127591  2621
STARLINK-5245           
1 54168U 22141M   22317.91667824  .00026155  00000+0  19061-3 0  9990
2 54168  53.2175  60.4063 0002140  21.9808 200.5013 15.73147216  2687
STARLINK-5282           
1 54169U 22141N   22317.91667824  .00027657  00000+0  20163-3 0  9994
2 54169  53.2175  60.4121 0002353  23.7742 195.7463 15.73104853  2680
STARLINK-5155           
1 54170U 22141P   22317.91667824  .00028756  00000+0  20899-3 0  9993
2 54170  53.2187  60.4062 0002390  24.8055 198.2452 15.73155162  2673
STARLINK-5229           
1 54171U 22141Q   22317.83334491  .00074715  00000+0  53412-3 0  9999
2 54171  53.2183  60.8262 0002096  17.0519  89.6390 15.73107622  2670
STARLINK-5117           
1 54172U 22141R   22317.83334491  .00137886  00000+0  97513-3 0  9999
2 54172  53.2172  60.8139 0002567  20.3366  91.6917 15.73094433  2675
STARLINK-5242           
1 54173U 22141S   22317.83334491  .00065405  00000+0  46869-3 0  9995
2 54173  53.2174  60.8198 0002284  22.2685  87.3893 15.73104415  2671
STARLINK-5248           
1 54174U 22141T   22317.83334491 -.00785018  00000+0 -50756-2 0  9996
2 54174  53.2168  60.0716 0001779  27.4942  88.7019 15.77486859  2678
STARLINK-5256           
1 54175U 22141U   22317.83334491  .00072977  00000+0  52124-3 0  9990
2 54175  53.2177  60.8162 0002536  21.3682  90.0835 15.73136588  2677
STARLINK-5154           
1 54176U 22141V   22317.58334491  .00017982  00000+0  13274-3 0  9991
2 54176  53.2172  62.0455 0002541  25.0529 112.8000 15.73114764  1307
STARLINK-5186           
1 54177U 22141W   22317.83334491  .00068784  00000+0  49171-3 0  9991
2 54177  53.2183  60.8148 0002571  29.6301  82.9946 15.73140165  2677
STARLINK-5164           
1 54178U 22141X   22317.58334491 -.00001531  00000+0 -65064-5 0  9994
2 54178  53.2172  62.0441 0002287  18.1851 120.2602 15.73115735  2639
STARLINK-5122           
1 54179U 22141Y   22317.83334491  .00062724  00000+0  44962-3 0  9994
2 54179  53.2174  60.8124 0001995  15.0155  98.2569 15.73114384  2909
STARLINK-5228           
1 54180U 22141Z   22317.83334491  .00069584  00000+0  49803-3 0  9996
2 54180  53.2168  60.8011 0002230  21.8636  96.1376 15.73107935  2908
STARLINK-5227           
1 54181U 22141AA  22317.83334491  .00070396  00000+0  50329-3 0  9995
2 54181  53.2172  60.8069 0002721  28.9598  86.6497 15.73127801  2909
STARLINK-5231           
1 54182U 22141AB  22317.58334491 -.00028262  00000+0 -19826-3 0  9992
2 54182  53.2161  62.0324 0002392  24.3786 119.3961 15.73120642  1308
STARLINK-5239           
1 54183U 22141AC  22317.58334491  .00049865  00000+0  35900-3 0  9994
2 54183  53.2181  62.0412 0002510  32.8907 107.9254 15.73106300  2865
STARLINK-5162           
1 54184U 22141AD  22317.58334491  .00029530  00000+0  21492-3 0  9993
2 54184  53.2159  62.0350 0002352  23.8480 118.1769 15.73106275  1306
STARLINK-5235           
1 54185U 22141AE  22317.83334491  .00064730  00000+0  46403-3 0  9992
2 54185  53.2190  60.8070 0002338  12.5903 104.2225 15.73099312  2909
STARLINK-5194           
1 54186U 22141AF  22317.91667824  .00026691  00000+0  19449-3 0  9995
2 54186  53.2160  60.3799 0002257  23.2906 210.5405 15.73138383  2916
STARLINK-5240           
1 54187U 22141AG  22317.83334491  .00068968  00000+0  49409-3 0  9990
2 54187  53.2176  60.8061 0002254  29.0441  87.1563 15.73089344  2900
STARLINK-5238           
1 54188U 22141AH  22317.83334491  .00068497  00000+0  49041-3 0  9990
2 54188  53.2145  60.7917 0002420  24.1854  96.8396 15.73106269  2902
STARLINK-5182           
1 54189U 22141AJ  22317.58334491  .00010927  00000+0  82508-4 0  9994
2 54189  53.2175  62.0364 0002446  15.0832 127.5512 15.73104444  1308
STARLINK-5281           
1 54190U 22141AK  22317.58334491  .00007139  00000+0  55393-4 0  9999
2 54190  53.2166  62.0293 0002128  27.4470 118.0546 15.73135397  1306
STARLINK-4619           
1 54191U 22141AL  22317.58334491  .00029066  00000+0  21146-3 0  9991
2 54191  53.2168  62.0338 0002495  24.5130 118.7022 15.73124465  2869
STARLINK-5268           
1 54192U 22141AM  22317.58334491  .00051902  00000+0  37309-3 0  9994
2 54192  53.2174  62.0192 0002416  21.0727 129.8246 15.73125581  2863
STARLINK-5263           
1 54193U 22141AN  22317.83334491  .00065051  00000+0  46547-3 0  9997
2 54193  53.2164  60.7904 0002425  23.0937 100.2410 15.73140690  2903
STARLINK-5271           
1 54194U 22141AP  22317.91667824  .00024880  00000+0  18141-3 0  9990
2 54194  53.2170  60.3751 0002297  19.4964 217.2646 15.73166971  2914
STARLINK-5258           
1 54195U 22141AQ  22317.58334491 -.00022904  00000+0 -15959-3 0  9996
2 54195  53.2175  62.0291 0002212  26.1890 119.9275 15.73141891  1300
STARLINK-5237           
1 54196U 22141AR  22317.58334491  .00011546  00000+0  86907-4 0  9997
2 54196  53.2171  62.0222 0002058  22.9612 126.1878 15.73107779  1301
STARLINK-5234           
1 54197U 22141AS  22317.58334491  .00010564  00000+0  79741-4 0  9995
2 54197  53.2180  62.0267 0002022  20.6265 126.8320 15.73155184  1303
STARLINK-5246           
1 54198U 22141AT  22317.58334491  .00029585  00000+0  21515-3 0  9994
2 54198  53.2172  62.0206 0002220  34.1368 115.6772 15.73124359  2861
STARLINK-5244           
1 54199U 22141AU  22317.58334491  .00012662  00000+0  94917-4 0  9990
2 54199  53.2176  62.0237 0002491  23.1864 125.3968 15.73095624  2866
STARLINK-5250           
1 54200U 22141AV  22317.58334491 -.00025496  00000+0 -17850-3 0  9994
2 54200  53.2145  62.0133 0002105  26.9572 124.5837 15.73104230  1307
STARLINK-5199           
1 54201U 22141AW  22317.83334491  .00063605  00000+0  45612-3 0  9992
2 54201  53.2163  60.7793 0002274  18.7946 109.9222 15.73098593  2902
STARLINK-5205           
1 54202U 22141AX  22317.83334491  .00070117  00000+0  50189-3 0  9994
2 54202  53.2157  60.7766 0001945  13.2059 116.0894 15.73103242  2907
STARLINK-5247           
1 54203U 22141AY  22317.83334491  .00072215  00000+0  51693-3 0  9997
2 54203  53.2158  60.7815 0002193  28.1039  98.8761 15.73089961  2904
STARLINK-5241           
1 54204U 22141AZ  22317.83334491  .00046454  00000+0  33384-3 0  9991
2 54204  53.2161  60.7730 0002217  25.0363 106.1422 15.73179988  2904
STARLINK-5249           
1 54205U 22141BA  22317.83334491  .00073372  00000+0  52507-3 0  9999
2 54205  53.2159  60.7759 0002180  24.4724 105.4458 15.73089989  2908
STARLINK-5264           
1 54206U 22141BB  22317.83334491 -.00037189  00000+0 -26075-3 0  9999
2 54206  53.2149  60.3447 0001401  10.4718 329.0557 15.73286381  2911
